{
  "type": "FeatureCollection",
  "features": [
    {
      "type": "Feature",
      "properties": {
        "norad_id": 24876,
        "name": "GPS BIIR-2  (PRN 13)",
        "group": "gps-ops",
        "lat": -12.317178776434478,
        "lon": -65.88520950099519,
        "alt_km": 20373.774087792044,
        "timestamp": "2025-12-18T23:35:49.318461+00:00",
        "meta_object_name": "GPS BIIR-2  (PRN 13)",
        "meta_object_id": "1997-035A",
        "meta_epoch": "2025-12-17T17:14:35.709504",
        "meta_mean_motion": 2.00563699,
        "meta_eccentricity": 0.00967771,
        "meta_inclination": 55.8976,
        "meta_ra_of_asc_node": 105.6742,
        "meta_arg_of_pericenter": 56.9662,
        "meta_mean_anomaly": 303.9295,
        "meta_ephemeris_type": 0,
        "meta_classification_type": "U",
        "meta_norad_cat_id": 24876,
        "meta_element_set_no": 999,
        "meta_rev_at_epoch": 20831,
        "meta_bstar": 0,
        "meta_mean_motion_dot": -2.3e-07,
        "meta_mean_motion_ddot": 0,
        "tle_line1": "1 24876U 97035A   25351.71846886 -.00000023  00000+0  00000+0 0  9999",
        "tle_line2": "2 24876  55.8976 105.6742 0096777  56.9662 303.9295  2.00563699208319"
      },
      "geometry": {
        "type": "Point",
        "coordinates": [
          -65.88520950099519,
          -12.317178776434478
        ]
      }
    },
    {
      "type": "Feature",
      "properties": {
        "norad_id": 26360,
        "name": "GPS BIIR-4  (PRN 20)",
        "group": "gps-ops",
        "lat": -51.83871669732935,
        "lon": -36.21980715395404,
        "alt_km": 20112.703509036302,
        "timestamp": "2025-12-18T23:35:49.318489+00:00",
        "meta_object_name": "GPS BIIR-4  (PRN 20)",
        "meta_object_id": "2000-025A",
        "meta_epoch": "2025-12-18T04:28:10.585632",
        "meta_mean_motion": 2.00567362,
        "meta_eccentricity": 0.0038886,
        "meta_inclination": 55.0484,
        "meta_ra_of_asc_node": 26.6175,
        "meta_arg_of_pericenter": 242.5017,
        "meta_mean_anomaly": 188.1576,
        "meta_ephemeris_type": 0,
        "meta_classification_type": "U",
        "meta_norad_cat_id": 26360,
        "meta_element_set_no": 999,
        "meta_rev_at_epoch": 18764,
        "meta_bstar": 0,
        "meta_mean_motion_dot": -7.5e-07,
        "meta_mean_motion_ddot": 0,
        "tle_line1": "1 26360U 00025A   25352.18623363 -.00000075  00000+0  00000+0 0  9994",
        "tle_line2": "2 26360  55.0484  26.6175 0038886 242.5017 188.1576  2.00567362187649"
      },
      "geometry": {
        "type": "Point",
        "coordinates": [
          -36.21980715395404,
          -51.83871669732935
        ]
      }
    },
    {
      "type": "Feature",
      "properties": {
        "norad_id": 26407,
        "name": "GPS BIIR-5  (PRN 22)",
        "group": "gps-ops",
        "lat": 41.67867243482233,
        "lon": 3.5752807376516453,
        "alt_km": 20509.37800830521,
        "timestamp": "2025-12-18T23:35:49.318507+00:00",
        "meta_object_name": "GPS BIIR-5  (PRN 22)",
        "meta_object_id": "2000-040A",
        "meta_epoch": "2025-12-18T13:13:56.353152",
        "meta_mean_motion": 2.00568108,
        "meta_eccentricity": 0.01256972,
        "meta_inclination": 54.8895,
        "meta_ra_of_asc_node": 222.3379,
        "meta_arg_of_pericenter": 301.9074,
        "meta_mean_anomaly": 232.0278,
        "meta_ephemeris_type": 0,
        "meta_classification_type": "U",
        "meta_norad_cat_id": 26407,
        "meta_element_set_no": 999,
        "meta_rev_at_epoch": 18632,
        "meta_bstar": 0,
        "meta_mean_motion_dot": 7.5e-07,
        "meta_mean_motion_ddot": 0,
        "tle_line1": "1 26407U 00040A   25352.55134668  .00000075  00000+0  00000+0 0  9998",
        "tle_line2": "2 26407  54.8895 222.3379 0125697 301.9074 232.0278  2.00568108186326"
      },
      "geometry": {
        "type": "Point",
        "coordinates": [
          3.5752807376516453,
          41.67867243482233
        ]
      }
    },
    {
      "type": "Feature",
      "properties": {
        "norad_id": 27663,
        "name": "GPS BIIR-8  (PRN 16)",
        "group": "gps-ops",
        "lat": -53.887013249989685,
        "lon": 116.43492017567387,
        "alt_km": 20529.59438946415,
        "timestamp": "2025-12-18T23:35:49.318521+00:00",
        "meta_object_name": "GPS BIIR-8  (PRN 16)",
        "meta_object_id": "2003-005A",
        "meta_epoch": "2025-12-18T15:15:29.035872",
        "meta_mean_motion": 2.00570647,
        "meta_eccentricity": 0.0147663,
        "meta_inclination": 54.922,
        "meta_ra_of_asc_node": 222.1438,
        "meta_arg_of_pericenter": 51.8804,
        "meta_mean_anomaly": 318.9428,
        "meta_ephemeris_type": 0,
        "meta_classification_type": "U",
        "meta_norad_cat_id": 27663,
        "meta_element_set_no": 999,
        "meta_rev_at_epoch": 16769,
        "meta_bstar": 0,
        "meta_mean_motion_dot": 7.5e-07,
        "meta_mean_motion_ddot": 0,
        "tle_line1": "1 27663U 03005A   25352.63575273  .00000075  00000+0  00000+0 0  9997",
        "tle_line2": "2 27663  54.9220 222.1438 0147663  51.8804 318.9428  2.00570647167698"
      },
      "geometry": {
        "type": "Point",
        "coordinates": [
          116.43492017567387,
          -53.887013249989685
        ]
      }
    },
    {
      "type": "Feature",
      "properties": {
        "norad_id": 28190,
        "name": "GPS BIIR-11 (PRN 19)",
        "group": "gps-ops",
        "lat": 44.61449486302333,
        "lon": -33.35627504381502,
        "alt_km": 20266.5206581027,
        "timestamp": "2025-12-18T23:35:49.318535+00:00",
        "meta_object_name": "GPS BIIR-11 (PRN 19)",
        "meta_object_id": "2004-009A",
        "meta_epoch": "2025-12-18T01:19:43.105728",
        "meta_mean_motion": 2.00560667,
        "meta_eccentricity": 0.01084092,
        "meta_inclination": 54.9808,
        "meta_ra_of_asc_node": 283.0048,
        "meta_arg_of_pericenter": 167.7197,
        "meta_mean_anomaly": 302.5438,
        "meta_ephemeris_type": 0,
        "meta_classification_type": "U",
        "meta_norad_cat_id": 28190,
        "meta_element_set_no": 999,
        "meta_rev_at_epoch": 15931,
        "meta_bstar": 0,
        "meta_mean_motion_dot": -5.1e-07,
        "meta_mean_motion_ddot": 0,
        "tle_line1": "1 28190U 04009A   25352.05536002 -.00000051  00000+0  00000+0 0  9996",
        "tle_line2": "2 28190  54.9808 283.0048 0108409 167.7197 302.5438  2.00560667159317"
      },
      "geometry": {
        "type": "Point",
        "coordinates": [
          -33.35627504381502,
          44.61449486302333
        ]
      }
    },
    {
      "type": "Feature",
      "properties": {
        "norad_id": 28474,
        "name": "GPS BIIR-13 (PRN 02)",
        "group": "gps-ops",
        "lat": 44.852868465455,
        "lon": 108.44611271325935,
        "alt_km": 20625.570235874344,
        "timestamp": "2025-12-18T23:35:49.318547+00:00",
        "meta_object_name": "GPS BIIR-13 (PRN 02)",
        "meta_object_id": "2004-045A",
        "meta_epoch": "2025-12-18T14:06:14.745888",
        "meta_mean_motion": 2.00569895,
        "meta_eccentricity": 0.01708674,
        "meta_inclination": 55.2378,
        "meta_ra_of_asc_node": 332.1705,
        "meta_arg_of_pericenter": 309.5078,
        "meta_mean_anomaly": 245.3843,
        "meta_ephemeris_type": 0,
        "meta_classification_type": "U",
        "meta_norad_cat_id": 28474,
        "meta_element_set_no": 999,
        "meta_rev_at_epoch": 15480,
        "meta_bstar": 0,
        "meta_mean_motion_dot": -8.5e-07,
        "meta_mean_motion_ddot": 0,
        "tle_line1": "1 28474U 04045A   25352.58767067 -.00000085  00000+0  00000+0 0  9993",
        "tle_line2": "2 28474  55.2378 332.1705 0170867 309.5078 245.3843  2.00569895154800"
      },
      "geometry": {
        "type": "Point",
        "coordinates": [
          108.44611271325935,
          44.852868465455
        ]
      }
    },
    {
      "type": "Feature",
      "properties": {
        "norad_id": 28874,
        "name": "GPS BIIRM-1 (PRN 17)",
        "group": "gps-ops",
        "lat": 53.92448171445319,
        "lon": -5.9626276187858,
        "alt_km": 20464.967685098494,
        "timestamp": "2025-12-18T23:35:49.318560+00:00",
        "meta_object_name": "GPS BIIRM-1 (PRN 17)",
        "meta_object_id": "2005-038A",
        "meta_epoch": "2025-12-18T14:46:52.316256",
        "meta_mean_motion": 2.00578112,
        "meta_eccentricity": 0.01314599,
        "meta_inclination": 55.0267,
        "meta_ra_of_asc_node": 280.4644,
        "meta_arg_of_pericenter": 293.6802,
        "meta_mean_anomaly": 240.6678,
        "meta_ephemeris_type": 0,
        "meta_classification_type": "U",
        "meta_norad_cat_id": 28874,
        "meta_element_set_no": 999,
        "meta_rev_at_epoch": 14821,
        "meta_bstar": 0,
        "meta_mean_motion_dot": -4.2e-07,
        "meta_mean_motion_ddot": 0,
        "tle_line1": "1 28874U 05038A   25352.61588329 -.00000042  00000+0  00000+0 0  9999",
        "tle_line2": "2 28874  55.0267 280.4644 0131459 293.6802 240.6678  2.00578112148212"
      },
      "geometry": {
        "type": "Point",
        "coordinates": [
          -5.9626276187858,
          53.92448171445319
        ]
      }
    }
  ]
}